C/2016 U1 (NEOWISE),h,01/13.8657/2017,46.3214,61.5362,162.8224,1.000406,0.323130,2000,17.0,4.0
# From MPC106345
C/2016 VZ18 (PANSTARRS),e,23.9779,98.9203,36.4110,163.9074,0.0004697,0.99442041,0.0000,03/05.5253/2017,2000,g 19.5,4.0
# From MPC106345
P/2016 WM48 (Lemmon),e,117.4468,59.9033,36.0828,8.165612,0.0422397,0.78388162,59.5247,01/03.0/2021,2000,g 15.0,4.0
# From MPC119995
C/2016 X1 (Lemmon),e,26.4532,256.4092,224.5013,1292,0.0000212,0.99414431,0.0000,04/28.6101/2019,2000,g  6.0,4.0
# From MPC108594
C/2017 A1 (PANSTARRS),e,49.7920,121.0448,2.0184,76.23124,0.0014808,0.96995060,1.9663,01/03.0/2021,2000,g 13.0,4.0
# From MPC108594
C/2017 A3 (Elenin),e,98.5304,97.8988,304.0029,43.44866,0.0034414,0.91147526,4.9321,01/03.0/2021,2000,g  9.5,4.0
# From MPC114598
C/2017 AB5 (PANSTARRS),e,32.4406,42.6415,78.3323,2378,0.0000085,0.99612555,0.0000,02/15.4906/2018,2000,g  5.5,4.0
# From MPC119995
C/2017 B3 (LINEAR),h,02/02.5895/2019,54.1699,2.1795,284.7934,1.001645,3.922968,2000,6.0,4.0
# From MPC103847
P/2017 B4 (PANSTARRS),e,20.0584,121.4578,11.0197,4.410520,0.1064068,0.36495152,359.9130,01/05.0/2017,2000,g 14.5,4.0
# From MPC104793
C/2017 C1 (NEOWISE),e,65.7590,357.5428,110.0728,20.58525,0.0105529,0.92716771,15.2547,01/03.0/2021,2000,g 18.0,4.0
# From MPC107685
C/2017 C2 (PANSTARRS),e,118.5860,249.7774,138.5940,96.28703,0.0010432,0.97483853,0.0000,01/21.4944/2017,2000,g 14.0,4.0
# From MPC104793
P/2017 D1 (Fuls),e,20.7558,82.1803,8.0513,4.829914,0.0928528,0.43627766,153.5689,01/03.0/2021,2000,g 14.0,4.0
# From MPC112391
C/2017 D2 (Barros),e,31.2575,330.9561,334.5240,4615,0.0000031,0.99946041,0.0000,07/14.8975/2017,2000,g 11.0,4.0
# From MPC114598
C/2017 D3 (ATLAS),h,04/27.3884/2017,125.5850,186.6772,340.8602,1.002203,4.972743,2000,8.0,4.0
# From MPC110495
P/2017 D4 (PANSTARRS),e,10.5299,264.9381,212.2848,7.563148,0.0473860,0.62833967,74.9069,01/03.0/2021,2000,g 13.0,4.0
# From MPC104794
C/2017 D5 (PANSTARRS),e,131.0507,92.7177,287.7270,114.4689,0.0008048,0.98113397,0.0000,01/09.5744/2017,2000,g 16.0,4.0
# From MPC106346
C/2017 E1 (Borisov),h,04/10.5971/2017,14.5710,142.5729,152.6915,1.003104,0.902204,2000,14.0,4.0
# From MPC109144
C/2017 E2 (Tsuchinshan),e,79.0786,11.6154,89.3605,21.52826,0.0098671,0.89083664,16.7486,01/03.0/2021,2000,g 11.5,4.0
# From MPC115882
C/2017 E3 (PANSTARRS),h,06/07.9530/2017,70.6387,220.7474,334.5163,1.006621,5.938298,2000,6.5,4.0
# From MPC105239
C/2017 E4 (Lovejoy),h,04/23.6049/2017,88.0723,223.0047,87.0642,1.001499,0.491037,2000,17.0,4.0
# From MPC105239
C/2017 E5 (Lemmon),e,122.6683,206.3607,306.9358,397.1618,0.0001245,0.99549761,0.0000,06/10.7649/2016,2000,g 13.0,4.0
# From MPC111769
C/2017 F1 (Lemmon),h,11/30.1281/2017,146.4629,158.7868,64.7559,1.003457,4.496294,2000,10.5,4.0
# From MPC114598
C/2017 F2 (PANSTARRS),h,11/27.3265/2017,42.5233,38.6754,135.0317,1.003565,6.931826,2000,7.5,4.0
# From MPC104794
P/2017 G1 (PANSTARRS),e,4.7742,249.6281,224.5355,7.287231,0.0501026,0.65293199,85.7552,01/03.0/2021,2000,g 13.5,4.0
# From MPC108595
P/2017 G2 (PANSTARRS),e,47.9460,79.7873,105.5553,8.067283,0.0430143,0.64815088,55.9871,01/03.0/2021,2000,g 13.0,4.0
# From MPC109144
C/2017 G3 (PANSTARRS),e,159.0545,279.4770,73.1277,314.0033,0.0001771,0.99175470,0.0000,04/15.8163/2017,2000,g 14.0,4.0
# From MPC115882
C/2017 K1 (PANSTARRS),h,03/17.5272/2018,154.0146,225.6690,4.4076,1.002354,7.289617,2000,7.0,4.0
# From MPC119995
C/2017 K2 (PANSTARRS),h,12/19.8235/2022,87.5481,88.2528,236.1795,1.000493,1.798191,2000,1.5,4.0
# From MPC106346
P/2017 K3 (Gasparovic),e,4.2734,354.2853,253.4843,5.582215,0.0747299,0.58050303,98.0959,01/03.0/2021,2000,g 14.5,4.0
# From MPC114598
C/2017 K4 (ATLAS),e,16.6803,298.8693,15.2443,28.52818,0.0064683,0.90705946,7.0538,01/03.0/2021,2000,g 10.0,4.0
# From MPC119995
C/2017 K5 (PANSTARRS),h,03/26.3311/2020,82.2392,102.3730,171.9799,1.006503,7.679963,2000,5.0,4.0
# From MPC114599
C/2017 K6 (Jacques),e,57.2474,85.0312,303.7543,1072,0.0000281,0.99813607,0.0000,01/03.3973/2018,2000,g 11.0,4.0
# From MPC110083
C/2017 M3 (PANSTARRS),e,77.5572,7.0169,110.3370,166.9577,0.0004569,0.97210649,0.0000,04/28.1167/2017,2000,g 10.5,4.0
# From MPC118093
C/2017 M4 (ATLAS),h,01/17.9164/2019,105.6477,65.8773,167.5914,1.001234,3.252772,2000,6.0,4.0
# From MPC118841
C/2017 M5 (TOTAS),h,06/04.1788/2018,15.8775,216.2821,92.7603,1.005386,5.994068,2000,6.5,4.0
# From MPC114599
C/2017 O1 (ASASSN),e,39.9073,25.7578,20.8429,357.0087,0.0001461,0.99581398,0.0000,10/14.8973/2017,2000,g 11.0,4.0
# From MPC114599
P/2017 P1 (PANSTARRS),e,7.6964,221.3991,122.3002,7.895321,0.0444272,0.31074226,41.2637,01/03.0/2021,2000,g 10.0,4.0
# From MPC114599
C/2017 P2 (PANSTARRS),e,50.0535,165.4836,132.3695,2159,0.0000098,0.99885796,0.0000,12/06.6532/2017,2000,g 10.0,4.0
# From MPC114599
P/2017 R1 (PANSTARRS),e,2.5740,143.6176,178.5880,4.135076,0.1172138,0.19566144,159.8655,01/03.0/2021,2000,g 13.5,4.0
# From MPC108595
C/2017 S2 (PANSTARRS),e,12.6771,62.3969,305.9645,20.54415,0.0105845,0.82421611,12.9366,01/03.0/2021,2000,g 13.0,4.0
# From MPC114599
C/2017 S3 (PANSTARRS),h,08/16.0377/2018,99.1478,171.2058,255.8389,1.000054,0.208021,2000,11.0,4.0
# From MPC114599
P/2017 S5 (ATLAS),e,11.8511,252.3745,99.8600,3.168172,0.1747797,0.31415234,219.2060,01/03.0/2021,2000,g 14.0,4.0
# From MPC109591
C/2017 S6 (Catalina),h,02/26.4356/2018,152.8674,131.0399,134.8168,1.000654,1.544005,2000,12.5,4.0
# From MPC114599
C/2017 S7 (Lemmon),h,05/25.1739/2017,124.2293,262.7796,187.5806,1.000345,7.607463,2000,7.0,4.0
# From MPC114599
P/2017 S8 (PANSTARRS),e,29.8199,191.6354,254.7530,2.779674,0.2126734,0.39204820,227.9384,01/03.0/2021,2000,g 16.0,4.0
# From MPC107050
P/2017 S9 (PANSTARRS),e,14.1439,146.2219,237.7108,3.153705,0.1759837,0.30513683,221.6962,01/03.0/2021,2000,g 17.0,4.0
# From MPC114600
C/2017 T1 (Heinze),e,96.8432,102.3339,96.9377,25075,0.0000002,0.99997676,0.0000,02/21.2182/2018,2000,g 14.5,4.0
# From MPC119996
C/2017 T2 (PANSTARRS),e,57.2280,64.3777,93.0020,3342,0.0000051,0.99951668,0.0000,05/04.9529/2020,2000,g  5.0,4.0
# From MPC114600
C/2017 T3 (ATLAS),e,88.0680,230.0897,246.8313,1232,0.0000228,0.99933045,0.0000,07/18.9166/2018,2000,g 10.0,4.0
# From MPC115882
P/2017 TW13 (Lemmon),e,44.8497,322.2954,120.0022,7.144663,0.0516097,0.70942331,47.8503,01/03.0/2021,2000,g 15.0,2.0
# From MPC114600
C/2017 U2 (Fuls),e,95.3892,149.7088,147.7927,3427,0.0000049,0.99804321,0.0000,08/28.2404/2017,2000,g  9.0,4.0
# From MPC114600
P/2017 U3 (PANSTARRS),e,15.9158,165.1076,296.9309,4.930431,0.0900278,0.09888721,56.4551,01/03.0/2021,2000,g 11.0,4.0
# From MPC114600
C/2017 U4 (PANSTARRS),h,09/23.5727/2018,158.2171,245.9446,159.0418,1.002574,7.721411,2000,7.0,4.0
# From MPC114600
C/2017 U5 (PANSTARRS),e,18.9727,163.0850,262.0338,16.87508,0.0142179,0.74393504,15.8041,01/03.0/2021,2000,g 12.0,4.0
# From MPC118841
C/2017 U7,h,09/14.0360/2019,142.5917,276.2448,326.2981,1.000911,6.422362,2000,8.3,2.0
# From MPC114600
C/2017 W2 (Leonard),e,98.1990,312.8415,169.0485,13.66468,0.0195121,0.71072857,22.6082,01/03.0/2021,2000,g 11.0,4.0
# From MPC114601
P/2017 W3 (Gibbs),e,18.1696,210.3079,327.7717,7.843501,0.0448683,0.50773567,46.6081,01/03.0/2021,2000,g 10.5,4.0
# From MPC115883
C/2017 X1 (PANSTARRS),e,31.3038,251.1298,283.2881,31.35647,0.0056132,0.85109498,5.2353,01/03.0/2021,2000,g 10.0,4.0
# From MPC117069
C/2017 Y1 (PANSTARRS),e,55.2667,307.5309,134.3171,1834,0.0000125,0.99797629,0.0000,08/31.1482/2017,2000,g 11.5,4.0
# From MPC118841
C/2017 Y2 (PANSTARRS),h,11/04.6596/2020,128.4130,65.9935,147.8788,1.000949,4.632110,2000,15.0,4.0
# From MPC111770
P/2017 Y3 (Leonard),e,27.5618,153.8495,67.5980,9.847427,0.0318948,0.87015288,33.7214,01/03.0/2021,2000,g 16.5,4.0
# From MPC114601
C/2018 A1 (PANSTARRS),e,53.6058,336.6500,96.2733,25.10353,0.0078361,0.90379691,9.1729,01/03.0/2021,2000,g 12.5,4.0
# From MPC119996
C/2018 A3 (ATLAS),e,139.5444,194.2940,86.3919,467.8703,0.0000974,0.99299898,0.0000,01/12.6099/2019,2000,g  8.5,4.0
# From MPC114601
C/2018 A4 (PANSTARRS),e,3.1483,97.6294,356.0449,12.20490,0.0231155,0.80335606,22.2027,01/03.0/2021,2000,g 14.0,4.0
# From MPC109147
P/2018 A5 (PANSTARRS),e,23.5804,87.8247,359.5755,5.635685,0.0736689,0.52226152,88.2512,01/03.0/2021,2000,g 15.0,4.0
# From MPC119996
C/2018 A6 (Gibbs),e,76.9820,340.3769,264.5586,15.32142,0.0164345,0.80296199,8.8542,01/03.0/2021,2000,g  9.0,4.0
# From MPC118841
C/2018 B1 (Lemmon),h,03/29.5233/2018,162.4200,133.1909,68.3100,1.001008,5.116033,2000,9.0,4.0
# From MPC114601
P/2018 C1 (Lemmon-Read),e,5.1226,270.3843,235.6723,5.654073,0.0733098,0.53336229,76.3747,01/03.0/2021,2000,g 13.5,4.0
# From MPC114601
C/2018 C2 (Lemmon),h,06/01.7388/2018,34.4593,91.1464,134.1134,1.000783,1.958058,2000,13.0,4.0
# From MPEC 2020-AA5
C/2018 DO4 (Lemmon),e,160.4740,251.1471,176.0037,25.75010,0.0075429,0.90651669,3.7991,01/03.0/2021,2000,g 11.0,4.0
# From MPC114602
C/2018 E1 (ATLAS),e,72.5133,146.8626,299.4011,53.95896,0.0024866,0.94992004,2.4660,01/03.0/2021,2000,g 10.5,4.0
# From MPC114602
C/2018 E2 (Barros),e,97.7111,67.1959,277.4693,3991,0.0000039,0.99901770,0.0000,12/24.0053/2017,2000,g 10.5,4.0
# From MPC114602
C/2018 EN4 (NEOWISE),e,81.6409,136.1439,35.0073,18.22210,0.0126709,0.92041097,11.9237,01/03.0/2021,2000,g 15.0,4.0
# From MPC114602
C/2018 EF9 (Lemmon),e,84.6422,172.5669,72.6201,555.2159,0.0000753,0.99719460,0.0000,05/22.8237/2018,2000,g 18.0,2.0
# From MPC115883
C/2018 F1 (Grauer),e,46.0769,177.2759,71.6350,285.9646,0.0002038,0.98952958,0.0000,12/13.8003/2018,2000,g 11.5,4.0
# From MPC110084
C/2018 F3 (Johnson),p,08/15.2314/2017,105.5348,293.0113,2.483172,173.0311,2000,13.0,4.0
# From MPC119996
C/2018 F4 (PANSTARRS),h,12/04.1447/2019,78.0941,26.5129,263.2282,1.001342,3.440253,2000,11.9,2.0
# From MPC114602
P/2018 H2 (PANSTARRS),e,7.3881,68.4053,119.9793,4.393461,0.1070271,0.54000572,115.2042,01/03.0/2021,2000,g 16.6,2.0
# From MPC114602
C/2018 K1 (Weiland),e,164.1959,260.0387,325.0714,29.95539,0.0060116,0.93718130,6.0249,01/03.0/2021,2000,g 14.9,4.0
# From MPC118094
